INTERCOSMOS 24          
1 20261U 89080A   25235.75293974  .00000976  00000+0  28179-3 0  9990
2 20261  82.6014 233.1218 1190280  32.0856 334.7346 12.59145008641881
SL-14 R/B               
1 20262U 89080C   25235.91622682  .00000200  00000+0  60662-4 0  9995
2 20262  82.5949 300.1920 1229664 276.8428  69.4600 12.50329421635438
DELTA 1 R/B             
1 20323U 89089B   25235.92157748  .00000276  00000+0  77367-4 0  9992
2 20323  97.0934 109.6346 0070138  28.5367 331.9642 14.50440445867069
ARIANE 40 R/B           
1 20443U 90005H   25235.89066982  .00000211  00000+0  80960-4 0  9992
2 20443  98.3409 297.1080 0011339  82.0071 278.2404 14.39677725864343
DELTA 2 R/B(1)          
1 20453U 90008B   25235.79663549  .00021274  00000+0  43879-3 0  9996
2 20453  35.6105  11.8578 0129576 250.9801 107.6852 15.36351209895513
COSMOS 2058             
1 20465U 90010A   25235.88215262  .00002657  00000+0  16510-3 0  9993
2 20465  82.4722 241.9321 0007280 289.7902  70.2542 15.09257755912389
SL-14 R/B               
1 20466U 90010B   25235.84980111  .00000308  00000+0  34666-4 0  9996
2 20466  82.4998  93.1708 0018694 229.1569 130.8027 14.83310426899155
SL-14 R/B               
1 20511U 90018B   25235.94776605  .00000342  00000+0  40231-4 0  9990
2 20511  82.5194  47.8933 0017048  27.4936 332.7176 14.81892452893299
HST                     
1 20580U 90037B   25235.55401992  .00004951  00000+0  17900-3 0  9994
2 20580  28.4683 308.0640 0002527 106.0807 254.0066 15.25990445742984
SL-16 R/B               
1 20625U 90046B   25235.75757350 -.00000252  00000+0 -10559-3 0  9993
2 20625  71.0019 353.5913 0016425 249.2228 110.7135 14.14974657820399
COSMOS 2084             
1 20663U 90055A   25235.70370770  .00001665  00000+0  13142-3 0  9995
2 20663  62.7901 290.0353 0050205 161.6893 198.6030 15.04033397906526
SL-6 R/B(2)             
1 20666U 90055D   25235.63494109  .00001523  00000+0  12937-3 0  9997
2 20666  62.7816 206.6900 0016336 214.6803 145.3232 15.02279793908426
SL-8 R/B                
1 20775U 90078B   25235.93477047  .00007623  00000+0  24993-3 0  9990
2 20775  82.9037  67.9896 0393470 315.3315  41.6808 14.80297929779959
SL-8 R/B                
1 21088U 91006B   25235.70907104  .00000062  00000+0  46937-4 0  9990
2 21088  82.9450 317.3289 0021517 227.1004 298.0507 13.77469342736816
OKEAN-3                 
1 21397U 91039A   25235.87712036  .00002511  00000+0  18390-3 0  9997
2 21397  82.5196 168.2532 0012649 287.5299  72.4544 15.03106738835305
COSMOS 2151             
1 21422U 91042A   25235.84040099  .00001205  00000+0  96997-4 0  9999
2 21422  82.4948 274.3252 0012738  15.9189 344.2432 14.99052891833540
SL-14 R/B               
1 21423U 91042B   25235.89240828  .00000372  00000+0  44322-4 0  9996
2 21423  82.4913  45.6448 0017411 166.3520 193.8169 14.81590165823784
ERS-1                   
1 21574U 91050A   25235.92524855  .00000234  00000+0  89698-4 0  9993
2 21574  98.7941 244.1671 0033204  69.7505 290.7246 14.39237875787289
ARIANE 40 R/B           
1 21610U 91050F   25235.68322281  .00000223  00000+0  79793-4 0  9999
2 21610  98.2342 290.0194 0002280 336.0411  24.0673 14.42680045790445
INTERCOSMOS 25          
1 21819U 91086A   25235.89277593  .00002017  00000+0  39570-3 0  9998
2 21819  82.5995  69.5334 1489791 183.1205 175.9697 12.11189846472738
SL-8 R/B                
1 21876U 92008B   25235.93933288 -.00000020  00000+0 -35633-4 0  9992
2 21876  82.9237  54.8398 0034031 328.9105 141.6591 13.75938507682228
SL-8 R/B                
1 21938U 92020B   25235.93403947  .00000051  00000+0  36849-4 0  9991
2 21938  82.9308 300.6300 0030256 128.3795  45.0996 13.75519232673948
USA 81                  
1 21949U 92023A   25235.95460393  .00000143  00000+0  45826-4 0  9993
2 21949  85.0033 245.4695 0001446  71.2768 288.8582 14.32263311 66488
COSMOS 2219             
1 22219U 92076A   25235.94596983  .00000246  00000+0  15392-3 0  9994
2 22219  71.0584  71.4293 0017180 147.4517 212.7669 14.14034159690421
SL-16 R/B               
1 22220U 92076B   25235.75415461  .00000103  00000+0  75453-4 0  9993
2 22220  70.9972 245.3088 0011637  27.6591 146.7421 14.16813320693790
COSMOS 2221             
1 22236U 92080A   25235.74278465  .00001327  00000+0  11848-3 0  9991
2 22236  82.5032 108.5033 0015628 133.1062 227.1470 14.95092540751202
SL-16 R/B               
1 22285U 92093B   25235.93087592 -.00000215  00000+0 -85597-4 0  9999
2 22285  71.0204  59.4017 0006442 256.4580 103.5826 14.15404102685171
COSMOS 2228             
1 22286U 92094A   25235.95128267  .00001527  00000+0  13367-3 0  9998
2 22286  82.5150  66.4625 0017059 246.1692 113.7742 14.95951133746489
SL-16 R/B               
1 22566U 93016B   25235.52750745 -.00000267  00000+0 -11237-3 0  9995
2 22566  71.0059 271.3714 0012734 266.2627  93.7040 14.15266554674131
COSMOS 2242             
1 22626U 93024A   25235.85268203  .00001317  00000+0  11672-3 0  9998
2 22626  82.5169  95.7630 0015157 249.4769 110.4826 14.95399449750811
SL-16 R/B               
1 22803U 93059B   25235.91716513  .00000155  00000+0  10034-3 0  9992
2 22803  70.9894  68.1771 0016179 158.5199 201.6607 14.17186855651512
ARIANE 40 R/B           
1 22830U 93061H   25235.92800487  .00000159  00000+0  74451-4 0  9998
2 22830  98.5221 303.3968 0011497 145.0498 215.1443 14.32694893665780
COSMOS 2278             
1 23087U 94023A   25235.70822452 -.00000147  00000+0 -52214-4 0  9996
2 23087  71.0518 229.2919 0010548 319.4298  40.6038 14.14316661616818
SL-16 R/B               
1 23088U 94023B   25235.91666341 -.00000196  00000+0 -76821-4 0  9997
2 23088  71.0001 126.2195 0005492 252.8306 107.2216 14.14978853618110
SL-16 R/B               
1 23343U 94074B   25235.89222508  .00000357  00000+0  54818-4 0  9996
2 23343  97.7354 269.5030 0007611 136.5867  36.4943 14.79105650658004
SL-16 R/B               
1 23405U 94077B   25235.90475157 -.00000243  00000+0 -99632-4 0  9999
2 23405  70.9825  48.5786 0000666 163.1050 197.0095 14.15526118588241
ARIANE 40+ R/B          
1 23561U 95021B   25235.82036122  .00000202  00000+0  78847-4 0  9996
2 23561  98.4789 304.6757 0007058  24.8794  85.9055 14.39573145590772
SL-16 R/B               
1 23705U 95058B   25235.68994449  .00000224  00000+0  13881-3 0  9995
2 23705  71.0184 235.9409 0010706  55.9299 304.2839 14.15455559539836
SL-16 R/B               
1 24298U 96051B   25235.43937991 -.00000203  00000+0 -83500-4 0  9994
2 24298  70.7594 234.8424 0013125  63.7174 296.5292 14.12397979493650
ORBVIEW 2 (SEASTAR)     
1 24883U 97037A   25235.93863907  .00000208  00000+0  88762-4 0  9997
2 24883  98.8354  30.2969 0001168 292.5833  67.5228 14.35292827480107
SL-16 R/B               
1 25400U 98043G   25235.86649209  .00000046  00000+0  38098-4 0  9997
2 25400  98.7916 183.1857 0009009 224.0320 136.0143 14.25985261410799
SL-16 R/B               
1 25407U 98045B   25235.72724077 -.00000223  00000+0 -88481-4 0  9998
2 25407  71.0089 237.8718 0009095 314.6301  45.4080 14.16150604399079
ISS (ZARYA)             
1 25544U 98067A   25235.75642456  .00011222  00000+0  20339-3 0  9993
2 25544  51.6355 332.1708 0003307 260.2831  99.7785 15.50129787525648
CZ-4B R/B               
1 25732U 99025C   25235.86585287  .00000038  00000+0  39143-4 0  9994
2 25732  98.6947 279.5134 0036938 192.0372 341.3168 14.18205163360127
OKEAN-O                 
1 25860U 99039A   25235.77780815  .00000504  00000+0  73734-4 0  9997
2 25860  97.9778 292.3450 0000877 102.7117 257.4192 14.79893122405113
SL-16 R/B               
1 25861U 99039B   25235.88118682  .00000451  00000+0  64617-4 0  9998
2 25861  98.0305 289.9246 0015058 173.9528 186.1869 14.81356429407578
DELTA 2 R/B             
1 25876U 99041E   25235.88038716  .00001669  00000+0  30805-3 0  9999
2 25876  51.7629  10.8042 0506608 124.9264 240.0353 14.11000163335092
HELIOS 1B               
1 25977U 99064A   25235.70329727  .00001083  00000+0  12853-3 0  9995
2 25977  98.1846 127.0988 0001700  47.6576 312.4782 14.86657889655832
TERRA                   
1 25994U 99068A   25235.93226763  .00000334  00000+0  77586-4 0  9992
2 25994  97.9926 291.5755 0003658  91.0154  82.2931 14.60769014366209
SL-16 R/B               
1 26070U 00006B   25235.90341198 -.00000140  00000+0 -47182-4 0  9995
2 26070  71.0024 153.6997 0014711 127.4120 232.8345 14.15782075320565
TITAN 4B R/B            
1 26474U 00047B   25235.92198753  .00002485  00000+0  16767-3 0  9993
2 26474  67.9876 235.7857 0048114 264.1048  95.4615 15.07564758363086
ENVISAT                 
1 27386U 02009A   25235.84842062  .00000062  00000+0  33876-4 0  9996
2 27386  98.3390 189.5226 0001196  85.8635 281.3187 14.38938485230722
IDEFIX & ARIANE 42P R/B 
1 27422U 02021B   25235.81947787  .00000187  00000+0  87873-4 0  9992
2 27422  98.5618 172.0622 0012920  53.3522 306.8847 14.30829860215724
AQUA                    
1 27424U 02022A   25235.84946381  .00000674  00000+0  14607-3 0  9992
2 27424  98.3835 195.0753 0001392 110.3402 279.2693 14.61417804239832
CZ-4B R/B               
1 27432U 02024C   25235.89637301  .00000032  00000+0  39903-4 0  9992
2 27432  98.9181 284.9444 0049483 223.6396 310.0795 14.14497015201273
MIDORI II (ADEOS-II)    
1 27597U 02056A   25235.88713715  .00000198  00000+0  96055-4 0  9996
2 27597  98.7428 188.3862 0000880 139.8049 220.3197 14.29090422182048
H-2A R/B                
1 27601U 02056E   25235.91788845  .00000284  00000+0  11413-3 0  9992
2 27601  98.2856 199.2049 0071218  31.9350  31.1125 14.33550706185775
CZ-4B R/B               
1 28059U 03049C   25235.93360746  .00000311  00000+0  83270-4 0  9993
2 28059  98.6660 218.3760 0049507 114.6288 246.0076 14.54735781157848
CZ-2C R/B               
1 28222U 04012C   25235.69676766  .00017282  00000+0  34147-3 0  9994
2 28222  97.7606 279.8365 0020120 314.9664  44.9953 15.46991154173517
